ONEWEB-0012             
1 44057U 19010A   23226.81814638  .00000032  00000+0  48791-4 0  9992
2 44057  87.8994  75.3048 0001616 122.9544 237.1742 13.16593027215095
ONEWEB-0010             
1 44058U 19010B   23224.86756278  .00000201  00000+0  49279-3 0  9990
2 44058  87.8989  75.6818 0002104 103.5491 256.5874 13.16595402214883
ONEWEB-0008             
1 44059U 19010C   23227.09681640  .00000111  00000+0  25730-3 0  9995
2 44059  87.8994  75.2275 0001642  76.0436 284.0878 13.16593243215288
ONEWEB-0007             
1 44060U 19010D   23227.06893542 -.00000071  00000+0 -22313-3 0  9991
2 44060  87.8982 105.7102 0001616  96.7404 263.3910 13.15550519215050
ONEWEB-0006             
1 44061U 19010E   23224.09002373 -.00000045  00000+0 -15446-3 0  9996
2 44061  87.8992 106.3074 0001784  91.5313 268.6022 13.15548812214677
ONEWEB-0011             
1 44062U 19010F   23224.22944461  .00000737  00000+0  19243-2 0  9999
2 44062  87.8996 106.2785 0001581  61.3136 298.8154 13.15541486214719
ONEWEB-0013             
1 45131U 20008A   23227.08171364  .00000759  00000+0  21692-2 0  9992
2 45131  87.9105 260.7586 0000994 103.8944 256.2294 13.09383904171101
ONEWEB-0017             
1 45132U 20008B   23227.06565601 -.00000546  00000+0 -16008-2 0  9993
2 45132  87.8803 242.2417 0002201  95.1927 264.9452 13.10372813172899
